KUIPER-00008            
1 63724U 25088A   25281.40576311  .00009656  00000+0  79637-3 0  9990
2 63724  51.8908  61.3161 0011017 309.6618  50.3380 14.99559188 25214
KUIPER-00009            
1 63725U 25088B   25281.36820373  .00007470  00000+0  10061-2 0  9993
2 63725  51.9007  60.1709 0012096 319.4348  40.5713 14.79965899 25228
KUIPER-00010            
1 63726U 25088C   25279.84904826 -.00099294  00000+0 -65233-2 0  9998
2 63726  51.8849  45.0815 0016125 354.2684   5.8103 15.07457066 24926
KUIPER-00012            
1 63728U 25088E   25281.49138698  .00013006  00000+0  58936-3 0  9998
2 63728  51.8751  37.1103 0010498 325.3816  34.6480 15.21130699 25267
KUIPER-00013            
1 63729U 25088F   25281.43445016  .00002029  00000+0  29493-3 0  9997
2 63729  51.9033  61.3432 0007200 240.8749 119.1493 14.79969690 25029
KUIPER-00015            
1 63731U 25088H   25281.14409374 -.00019447  00000+0 -24342-2 0  9996
2 63731  51.8968  75.3887 0008642 298.1042  61.9047 14.81496800 25075
